STARLINK-33751          
1 63512U 25071V   25263.58438894  .00042880  00000+0  14513-2 0  9996
2 63512  53.1576 210.1729 0002204  85.6241 274.5012 15.30205661 26707
STARLINK-33750          
1 63513U 25071W   25263.58755426  .00030388  00000+0  10337-2 0  9990
2 63513  53.1579 210.1924 0001916  92.1322 267.9898 15.30207821 26708
STARLINK-33786          
1 63514U 25071X   25263.26941694  .00044081  00000+0  14910-2 0  9996
2 63514  53.1588 211.7604 0000532  98.2494 261.8567 15.30213394 26293
STARLINK-33796          
1 63515U 25071Y   25263.22615362  .00028996  00000+0  98720-3 0  9992
2 63515  53.1565 211.4908 0000841  83.0629 277.0468 15.30203591 26677
STARLINK-33785          
1 63516U 25071Z   25263.59283231  .00038703  00000+0  13112-2 0  9997
2 63516  53.1581 210.2236 0002458  95.0176 265.1106 15.30219373 26709
STARLINK-33803          
1 63517U 25071AA  25263.56011423  .00028631  00000+0  97490-3 0  9998
2 63517  53.1569 210.0149 0001590  92.4263 267.6920 15.30205376 26722
STARLINK-33807          
1 63518U 25071AB  25263.24989968  .00048957  00000+0  16530-2 0  9990
2 63518  53.1596 213.7713 0001339 110.7405 249.3739 15.30222860 26646
STARLINK-33787          
1 63519U 25071AC  25263.58173787  .00027027  00000+0  92025-3 0  9991
2 63519  53.1579 212.2896 0001896  85.0330 275.0887 15.30237243 26329
STARLINK-11669 [DTC]    
1 63548U 25075A   25262.90650907  .00353036  00000+0  26310-2 0  9991
2 63548  43.0001 102.8010 0001806 283.4183  76.6483 15.70917924 26391
STARLINK-11665 [DTC]    
1 63549U 25075B   25263.25096894  .00349587  00000+0  26031-2 0  9996
2 63549  42.9972 101.0985 0001788 283.9081  76.1587 15.70948282 26447
STARLINK-11667 [DTC]    
1 63550U 25075C   25263.84445206  .00322841  00000+0  24068-2 0  9990
2 63550  43.0018  97.8188 0002012 246.5478 113.5179 15.71000498 26537
STARLINK-11695 [DTC]    
1 63551U 25075D   25262.90742032  .00201883  00000+0  15390-2 0  9994
2 63551  42.9989 102.8117 0001449 260.9320  99.1383 15.70838830 26399
STARLINK-11685 [DTC]    
1 63552U 25075E   25262.91712536  .00258278  00000+0  19496-2 0  9993
2 63552  43.0014 102.8853 0002195 276.6274  83.4344 15.70898808 26393
STARLINK-11697 [DTC]    
1 63553U 25075F   25263.81259257  .00280708  00000+0  21085-2 0  9990
2 63553  42.9976  97.5613 0001268 232.0476 128.0277 15.70948100 26531
STARLINK-11680 [DTC]    
1 63554U 25075G   25263.83914145  .00231001  00000+0  17448-2 0  9997
2 63554  42.9991  97.7747 0001126 246.7336 113.3413 15.70967582 26533
STARLINK-11687 [DTC]    
1 63555U 25075H   25263.82852202  .00214316  00000+0  16238-2 0  9998
2 63555  43.0009  97.6895 0002376 257.7185 102.3417 15.70945166 26537
