[{"OBJECT_NAME":"STARLINK-33751","OBJECT_ID":"2025-071V","EPOCH":"2025-09-20T14:01:31.204416","MEAN_MOTION":15.30205661,"ECCENTRICITY":0.00022045,"INCLINATION":53.1576,"RA_OF_ASC_NODE":210.1729,"ARG_OF_PERICENTER":85.6241,"MEAN_ANOMALY":274.5012,"EPHEMERIS_TYPE":0,"CLASSIFICATION_TYPE":"U","NORAD_CAT_ID":63512,"ELEMENT_SET_NO":999,"REV_AT_EPOCH":2670,"BSTAR":0.0014512539,"MEAN_MOTION_DOT":0.0004288,"MEAN_MOTION_DDOT":0},{"OBJECT_NAME":"STARLINK-33750","OBJECT_ID":"2025-071W","EPOCH":"2025-09-20T14:06:04.688064","MEAN_MOTION":15.30207821,"ECCENTRICITY":0.00019162,"INCLINATION":53.1579,"RA_OF_ASC_NODE":210.1924,"ARG_OF_PERICENTER":92.1322,"MEAN_ANOMALY":267.9898,"EPHEMERIS_TYPE":0,"CLASSIFICATION_TYPE":"U","NORAD_CAT_ID":63513,"ELEMENT_SET_NO":999,"REV_AT_EPOCH":2670,"BSTAR":0.0010336647,"MEAN_MOTION_DOT":0.00030388,"MEAN_MOTION_DDOT":0},{"OBJECT_NAME":"STARLINK-33786","OBJECT_ID":"2025-071X","EPOCH":"2025-09-20T06:27:57.623616","MEAN_MOTION":15.30213394,"ECCENTRICITY":5.321e-5,"INCLINATION":53.1588,"RA_OF_ASC_NODE":211.7604,"ARG_OF_PERICENTER":98.2494,"MEAN_ANOMALY":261.8567,"EPHEMERIS_TYPE":0,"CLASSIFICATION_TYPE":"U","NORAD_CAT_ID":63514,"ELEMENT_SET_NO":999,"REV_AT_EPOCH":2629,"BSTAR":0.0014910229,"MEAN_MOTION_DOT":0.00044081,"MEAN_MOTION_DDOT":0},{"OBJECT_NAME":"STARLINK-33796","OBJECT_ID":"2025-071Y","EPOCH":"2025-09-20T05:25:39.672768","MEAN_MOTION":15.30203591,"ECCENTRICITY":8.41e-5,"INCLINATION":53.1565,"RA_OF_ASC_NODE":211.4908,"ARG_OF_PERICENTER":83.0629,"MEAN_ANOMALY":277.0468,"EPHEMERIS_TYPE":0,"CLASSIFICATION_TYPE":"U","NORAD_CAT_ID":63515,"ELEMENT_SET_NO":999,"REV_AT_EPOCH":2667,"BSTAR":0.00098720209,"MEAN_MOTION_DOT":0.00028996,"MEAN_MOTION_DDOT":0},{"OBJECT_NAME":"STARLINK-33785","OBJECT_ID":"2025-071Z","EPOCH":"2025-09-20T14:13:40.711584","MEAN_MOTION":15.30219373,"ECCENTRICITY":0.00024583,"INCLINATION":53.1581,"RA_OF_ASC_NODE":210.2236,"ARG_OF_PERICENTER":95.0176,"MEAN_ANOMALY":265.1106,"EPHEMERIS_TYPE":0,"CLASSIFICATION_TYPE":"U","NORAD_CAT_ID":63516,"ELEMENT_SET_NO":999,"REV_AT_EPOCH":2670,"BSTAR":0.0013112491,"MEAN_MOTION_DOT":0.00038703,"MEAN_MOTION_DDOT":0},{"OBJECT_NAME":"STARLINK-33803","OBJECT_ID":"2025-071AA","EPOCH":"2025-09-20T13:26:33.869472","MEAN_MOTION":15.30205376,"ECCENTRICITY":0.000159,"INCLINATION":53.1569,"RA_OF_ASC_NODE":210.0149,"ARG_OF_PERICENTER":92.4263,"MEAN_ANOMALY":267.692,"EPHEMERIS_TYPE":0,"CLASSIFICATION_TYPE":"U","NORAD_CAT_ID":63517,"ELEMENT_SET_NO":999,"REV_AT_EPOCH":2672,"BSTAR":0.00097489997,"MEAN_MOTION_DOT":0.00028631,"MEAN_MOTION_DDOT":0},{"OBJECT_NAME":"STARLINK-33807","OBJECT_ID":"2025-071AB","EPOCH":"2025-09-20T05:59:51.332352","MEAN_MOTION":15.3022286,"ECCENTRICITY":0.00013391,"INCLINATION":53.1596,"RA_OF_ASC_NODE":213.7713,"ARG_OF_PERICENTER":110.7405,"MEAN_ANOMALY":249.3739,"EPHEMERIS_TYPE":0,"CLASSIFICATION_TYPE":"U","NORAD_CAT_ID":63518,"ELEMENT_SET_NO":999,"REV_AT_EPOCH":2664,"BSTAR":0.0016530288,"MEAN_MOTION_DOT":0.00048957,"MEAN_MOTION_DDOT":0},{"OBJECT_NAME":"STARLINK-33787","OBJECT_ID":"2025-071AC","EPOCH":"2025-09-20T13:57:42.151968","MEAN_MOTION":15.30237243,"ECCENTRICITY":0.00018962,"INCLINATION":53.1579,"RA_OF_ASC_NODE":212.2896,"ARG_OF_PERICENTER":85.033,"MEAN_ANOMALY":275.0887,"EPHEMERIS_TYPE":0,"CLASSIFICATION_TYPE":"U","NORAD_CAT_ID":63519,"ELEMENT_SET_NO":999,"REV_AT_EPOCH":2632,"BSTAR":0.00092024593,"MEAN_MOTION_DOT":0.00027027,"MEAN_MOTION_DDOT":0},{"OBJECT_NAME":"STARLINK-11669 [DTC]","OBJECT_ID":"2025-075A","EPOCH":"2025-09-19T21:45:22.383648","MEAN_MOTION":15.70917924,"ECCENTRICITY":0.00018061,"INCLINATION":43.0001,"RA_OF_ASC_NODE":102.801,"ARG_OF_PERICENTER":283.4183,"MEAN_ANOMALY":76.6483,"EPHEMERIS_TYPE":0,"CLASSIFICATION_TYPE":"U","NORAD_CAT_ID":63548,"ELEMENT_SET_NO":999,"REV_AT_EPOCH":2639,"BSTAR":0.00263099,"MEAN_MOTION_DOT":0.00353036,"MEAN_MOTION_DDOT":0},{"OBJECT_NAME":"STARLINK-11665 [DTC]","OBJECT_ID":"2025-075B","EPOCH":"2025-09-20T06:01:23.716416","MEAN_MOTION":15.70948282,"ECCENTRICITY":0.00017882,"INCLINATION":42.9972,"RA_OF_ASC_NODE":101.0985,"ARG_OF_PERICENTER":283.9081,"MEAN_ANOMALY":76.1587,"EPHEMERIS_TYPE":0,"CLASSIFICATION_TYPE":"U","NORAD_CAT_ID":63549,"ELEMENT_SET_NO":999,"REV_AT_EPOCH":2644,"BSTAR":0.0026030922,"MEAN_MOTION_DOT":0.00349587,"MEAN_MOTION_DDOT":0},{"OBJECT_NAME":"STARLINK-11667 [DTC]","OBJECT_ID":"2025-075C","EPOCH":"2025-09-20T20:16:00.657984","MEAN_MOTION":15.71000498,"ECCENTRICITY":0.00020127,"INCLINATION":43.0018,"RA_OF_ASC_NODE":97.8188,"ARG_OF_PERICENTER":246.5478,"MEAN_ANOMALY":113.5179,"EPHEMERIS_TYPE":0,"CLASSIFICATION_TYPE":"U","NORAD_CAT_ID":63550,"ELEMENT_SET_NO":999,"REV_AT_EPOCH":2653,"BSTAR":0.0024067676,"MEAN_MOTION_DOT":0.00322841,"MEAN_MOTION_DDOT":0},{"OBJECT_NAME":"STARLINK-11695 [DTC]","OBJECT_ID":"2025-075D","EPOCH":"2025-09-19T21:46:41.115648","MEAN_MOTION":15.7083883,"ECCENTRICITY":0.0001449,"INCLINATION":42.9989,"RA_OF_ASC_NODE":102.8117,"ARG_OF_PERICENTER":260.932,"MEAN_ANOMALY":99.1383,"EPHEMERIS_TYPE":0,"CLASSIFICATION_TYPE":"U","NORAD_CAT_ID":63551,"ELEMENT_SET_NO":999,"REV_AT_EPOCH":2639,"BSTAR":0.0015389751,"MEAN_MOTION_DOT":0.00201883,"MEAN_MOTION_DDOT":0},{"OBJECT_NAME":"STARLINK-11685 [DTC]","OBJECT_ID":"2025-075E","EPOCH":"2025-09-19T22:00:39.631104","MEAN_MOTION":15.70898808,"ECCENTRICITY":0.00021959,"INCLINATION":43.0014,"RA_OF_ASC_NODE":102.8853,"ARG_OF_PERICENTER":276.6274,"MEAN_ANOMALY":83.4344,"EPHEMERIS_TYPE":0,"CLASSIFICATION_TYPE":"U","NORAD_CAT_ID":63552,"ELEMENT_SET_NO":999,"REV_AT_EPOCH":2639,"BSTAR":0.0019495688,"MEAN_MOTION_DOT":0.00258278,"MEAN_MOTION_DDOT":0},{"OBJECT_NAME":"STARLINK-11697 [DTC]","OBJECT_ID":"2025-075F","EPOCH":"2025-09-20T19:30:07.998048","MEAN_MOTION":15.709481,"ECCENTRICITY":0.00012682,"INCLINATION":42.9976,"RA_OF_ASC_NODE":97.5613,"ARG_OF_PERICENTER":232.0476,"MEAN_ANOMALY":128.0277,"EPHEMERIS_TYPE":0,"CLASSIFICATION_TYPE":"U","NORAD_CAT_ID":63553,"ELEMENT_SET_NO":999,"REV_AT_EPOCH":2653,"BSTAR":0.0021084707,"MEAN_MOTION_DOT":0.00280708,"MEAN_MOTION_DDOT":0},{"OBJECT_NAME":"STARLINK-11680 [DTC]","OBJECT_ID":"2025-075G","EPOCH":"2025-09-20T20:08:21.821280","MEAN_MOTION":15.70967582,"ECCENTRICITY":0.0001126,"INCLINATION":42.9991,"RA_OF_ASC_NODE":97.7747,"ARG_OF_PERICENTER":246.7336,"MEAN_ANOMALY":113.3413,"EPHEMERIS_TYPE":0,"CLASSIFICATION_TYPE":"U","NORAD_CAT_ID":63554,"ELEMENT_SET_NO":999,"REV_AT_EPOCH":2653,"BSTAR":0.0017447978,"MEAN_MOTION_DOT":0.00231001,"MEAN_MOTION_DDOT":0},{"OBJECT_NAME":"STARLINK-11687 [DTC]","OBJECT_ID":"2025-075H","EPOCH":"2025-09-20T19:53:04.302528","MEAN_MOTION":15.70945166,"ECCENTRICITY":0.00023763,"INCLINATION":43.0009,"RA_OF_ASC_NODE":97.6895,"ARG_OF_PERICENTER":257.7185,"MEAN_ANOMALY":102.3417,"EPHEMERIS_TYPE":0,"CLASSIFICATION_TYPE":"U","NORAD_CAT_ID":63555,"ELEMENT_SET_NO":999,"REV_AT_EPOCH":2653,"BSTAR":0.0016237741,"MEAN_MOTION_DOT":0.00214316,"MEAN_MOTION_DDOT":0}]
